#aV2023  6 17  0  0  0.00000000     288 DD+AD WGS84 FIT  NGA
## 2266 518400.00000000   300.00000000 60112 0.0000000000000
+   32     1  2  3  4  5  6  7  8  9 10 11 12 13 14 15 16 17
+         18 19 20 21 22 23 24 25 26 27 28 29 30 31 32  0  0
+          0  0  0  0  0  0  0  0  0  0  0  0  0  0  0  0  0
+          0  0  0  0  0  0  0  0  0  0  0  0  0  0  0  0  0
+          0  0  0  0  0  0  0  0  0  0  0  0  0  0  0  0  0
++         2  2  2  2  2  2  2  2  2  2  2  2  2  2  2  2  2
++         2  2  2  2  2  2  2  2  2  2  2  2  2  2  2  0  0
++         0  0  0  0  0  0  0  0  0  0  0  0  0  0  0  0  0
++         0  0  0  0  0  0  0  0  0  0  0  0  0  0  0  0  0
++         0  0  0  0  0  0  0  0  0  0  0  0  0  0  0  0  0
%c cc cc ccc ccc cccc cccc cccc cccc ccccc ccccc ccccc ccccc
%c cc cc ccc ccc cccc cccc cccc cccc ccccc ccccc ccccc ccccc
%f  0.0000000  0.000000000  0.00000000000  0.000000000000000
%f  0.0000000  0.000000000  0.00000000000  0.000000000000000
%i    0    0    0    0      0      0      0      0         0
%i    0    0    0    0      0      0      0      0         0
/*      NGA, ST. LOUIS,MO.                                  
/*   EPHEMERIS COMPUTED FROM 2 DAYS OF DATA                 
/*   EPOCHA v8 SMOOTHER                                     
/*   G2139 IERS2010 SATIGS SATAPC                           
*  2023  6 17  6 45  0.00000000
P  1 -15314.375456 -13695.094115 -17367.156595    177.899355                    
V  1  21105.610253   2103.549342 -20340.254277     -0.023138                    
P  2  -9882.531451 -14065.305198 -19781.544574   -585.018367                    
V  2  26206.155516     21.626998 -12645.918626      0.035968                    
P  3 -12950.641832 -22778.698629   4586.947266   -267.496415                    
V  3   -395.239101  -6307.973877 -31386.885932      0.137013                    
P  4  -7733.842566 -13937.492513  21239.830084     70.538492                    
V  4  17496.127685 -20517.163126  -7208.186709      0.103636                    
P  5   3293.792107  23958.255713  10670.033278   -131.419763                    
V  5  -8164.984397 -11442.606939  27863.115131     -0.014640                    
P  6 -22120.314083   6031.977049  13550.266602    584.587651                    
V  6 -16680.446074  -3679.582807 -25609.143192     -0.020775                    
P  7 -25508.557466  -6886.323982   5081.981456    150.131495                    
V  7   6078.212922  -1864.030598  30335.998381     -0.101355                    
P  8   1981.079035 -21416.795266 -15394.467648   -127.786739                    
V  8  13215.483228 -14628.906767  22542.075596     -0.018370                    
P  9 -15470.648484  -4054.401273  21137.712941   -133.864541                    
V  9  15279.674531 -22294.834782   6841.552533      0.089050                    
P 10  14587.482696  -3133.481984 -21817.555341    -41.490111                    
V 10  10871.527207  25856.269742   3224.298806     -0.015752                    
P 11  -8361.818103  13497.251654  21293.901966   -238.777190                    
V 11 -26499.071790  -5276.635267  -7103.935702     -0.151337                    
P 12   9616.333621  24737.208202   1543.106037   -389.586730                    
V 12  -1725.154854   3011.886789 -31731.141848     -0.046904                    
P 13 -10940.120127  21559.530269 -10931.184792    535.093731                    
V 13 -11301.161179   8036.148356  27814.928717      0.051379                    
P 14 -16229.259703   -165.001297 -21033.945834     93.252741                    
V 14  -9058.068538 -25186.602538   7026.676697      0.123726                    
P 15   1499.992534  21507.772009 -15805.697668     49.607366                    
V 15 -11639.330584  15765.775235  21227.064809      0.035129                    
P 16   2398.763492 -22472.528733  13272.848425   -490.638949                    
V 16   7783.817663  15906.458999  25395.610723      0.038969                    
P 17 -20543.499443  11094.452660 -12336.134071    718.619725                    
V 17   9056.053772 -13687.151355 -26373.030557      0.012425                    
P 18  26181.334937   4747.311367   1462.759018   -310.767500                    
V 18  -2151.288669   1984.125759  31862.132539     -0.149572                    
P 19 -20364.779490  15767.284894  -5989.679994    331.676853                    
V 19   3171.026903  -7136.669951 -31006.321487      0.051250                    
P 20  -3033.707448  19316.472105  18091.668262    427.569863                    
V 20 -13696.028346 -18392.332302  17187.134192     -0.020619                    
P 21  -7196.687210 -14638.184171 -20582.209710    153.034744                    
V 21  27209.408907    518.676138  -8784.503655     -0.003081                    
P 22  18614.626346 -18653.371373  -2068.986240    499.122006                    
V 22     53.825086   4324.073939 -31755.032927      0.059340                    
P 23  17520.242420   9811.642966 -17460.544631     33.977922                    
V 23   7953.037054  20647.098883  19425.135165      0.036727                    
P 24  11480.218503  14751.029778 -19374.886146   -227.614103                    
V 24 -23842.067212    497.335002 -13589.320916     -0.130204                    
P 25  16572.309737  17115.477627  11700.522037    450.331141                    
V 25   3869.299604  14966.097335 -26400.247428      0.025126                    
P 26   9767.778260 -13857.926586  20253.670230    238.853084                    
V 26  12983.277867  22748.921459   9590.623380     -0.008606                    
P 27  11690.852326 -22827.151730  -6267.169283     14.884005                    
V 27   6869.593457  -4498.684209  30817.160405     -0.075952                    
P 28  23113.284264  -6062.644694  11571.552989     83.374734                    
V 28  14458.059773   3685.550778 -26901.667898      0.006746                    
P 29  13405.282489   7056.032347  21771.237760   -603.043897                    
V 29 -18122.473528  20971.675229   4258.073998     -0.011924                    
P 30 -26130.832712    524.942842  -5347.282784   -510.500757                    
V 30  -6417.531984  -4187.275570  30019.089348      0.024799                    
P 31  14175.160621 -11657.949723  19170.651791   -218.323505                    
V 31  24162.446242   4780.901117 -14405.265107     -0.007457                    
P 32  19701.838367 -13769.916034 -10898.871207   -501.985200                    
V 32  -6300.339327  12983.402453 -27530.109872     -0.083888                    
EOF
